[{"OBJECT_NAME":"STARLINK-2065","OBJECT_ID":"2021-012BE","EPOCH":"2026-03-09T06:02:29.895360","MEAN_MOTION":15.6876286,"ECCENTRICITY":0.0006678,"INCLINATION":53.1532,"RA_OF_ASC_NODE":11.1448,"ARG_OF_PERICENTER":48.9965,"MEAN_ANOMALY":311.1629,"EPHEMERIS_TYPE":0,"CLASSIFICATION_TYPE":"U","NORAD_CAT_ID":47672,"ELEMENT_SET_NO":999,"REV_AT_EPOCH":28079,"BSTAR":0.00096339732,"MEAN_MOTION_DOT":0.00113313,"MEAN_MOTION_DDOT":0},{"OBJECT_NAME":"STARLINK-11520 [DTC]","OBJECT_ID":"2025-019F","EPOCH":"2026-03-09T02:53:30.530400","MEAN_MOTION":15.70895854,"ECCENTRICITY":0.00018015,"INCLINATION":42.9977,"RA_OF_ASC_NODE":309.1954,"ARG_OF_PERICENTER":231.8525,"MEAN_ANOMALY":128.2181,"EPHEMERIS_TYPE":0,"CLASSIFICATION_TYPE":"U","NORAD_CAT_ID":62834,"ELEMENT_SET_NO":999,"REV_AT_EPOCH":6380,"BSTAR":0.0018589201,"MEAN_MOTION_DOT":0.00245843,"MEAN_MOTION_DDOT":0}]
