STARLINK-2065           
1 47672U 21012BE  26068.25173490  .00113313  00000+0  96340-3 0  9991
2 47672  53.1532  11.1448 0006678  48.9965 311.1629 15.68762860280792
STARLINK-11520 [DTC]    
1 62834U 25019F   26068.12049225  .00245843  00000+0  18589-2 0  9995
2 62834  42.9977 309.1954 0001801 231.8525 128.2181 15.70895854 63802
